[Satellite]
VERSION=1.1
NAME=FALCON 9 DEB
NICKNAME=FALCON 9 DEB
TLE1=1 54017U 22125BF  22297.01991688  .00415126  83387-4  85492-3 0  9996
TLE2=2 54017  53.2300   0.3450 0009618   3.0223 357.0865 15.98662025  3199
STATUS=0
